GHOST-1                 
1 56195U 23054T   24247.61808793  .00031354  00000+0  94951-3 0  9997
2 56195  97.3517 142.6970 0006274 230.3888 129.6802 15.34090296 78013
GHOST-2                 
1 56197U 23054V   24247.57431020  .00035301  00000+0  98732-3 0  9996
2 56197  97.3510 143.4713 0006243 227.5087 132.5630 15.36568007 78066
TOMORROW-R1             
1 56199U 23054X   24247.61606557  .00054252  00000+0  12735-2 0  9996
2 56199  97.3540 145.0851 0005067 221.5292 138.5571 15.41847885 78168
FACSAT-2                
1 56205U 23054AD  24247.69495019  .00035050  00000+0  90432-3 0  9997
2 56205  97.3563 145.2817 0008998 214.5982 145.4679 15.39045306 78171
CONNECTA T2.1           
1 56210U 23054AJ  24247.68440493  .00038471  00000+0  10095-2 0  9994
2 56210  97.3484 144.1762 0007564 213.4451 146.6317 15.38518260 78134
INSPIRE-SAT 7           
1 56211U 23054AK  24247.46864697  .00609150  00000+0  23940-2 0  9998
2 56211  97.3416 152.0729 0010084 148.2263 211.9618 15.85372257 78606
LS3C                    
1 56214U 23054AN  24247.70127321  .00202744  00000+0  19945-2 0  9992
2 56214  97.3482 150.2747 0007238 158.9811 201.1748 15.65325755 78521
IRIS-C                  
1 56221U 23054AV  24247.69279811  .00224134  00000+0  22306-2 0  9992
2 56221  97.3471 148.9303 0006607 149.1400 211.0249 15.64971106 78425
DISCO-1                 
1 56222U 23054AW  24247.62030489  .00082694  00000+0  16027-2 0  9998
2 56222  97.3469 145.7383 0006024 200.6334 159.4673 15.47383455 78216
REVELA                  
1 56224U 23054AY  24247.69071685  .00095510  00000+0  16444-2 0  9994
2 56224  97.3494 147.1100 0004765 165.9097 194.2289 15.50732130 78300
TELEOS-2                
1 56310U 23057C   24247.63993679  .00021959  00000+0  18188-2 0  9996
2 56310   9.9882 268.2490 0000706 270.6575  89.3558 14.96452862 75040
SNIPE 4                 
1 56744U 23072B   24247.75305710  .00023264  00000+0  12076-2 0  9991
2 56744  97.5498  73.8553 0011807 117.0773 243.1666 15.16065218 70565
SNIPE 2                 
1 56745U 23072C   24247.74085715  .00026962  00000+0  14004-2 0  9992
2 56745  97.5643  74.4064 0008315 129.7343 230.4623 15.16042263 70573
2023-072G               
1 56749U 23072G   24247.72294800  .00027140  00000+0  13295-2 0  9991
2 56749  97.5299  73.4936 0008719 138.8607 221.3286 15.18093548 70616
OTTER PUP               
1 56933U 23084B   24247.60281409  .00032475  00000+0  12354-2 0  9999
2 56933  97.5454   7.2330 0006978  78.1478 282.0542 15.26676859 68116
GEISAT PRECURSOR        
1 56934U 23084C   24247.64997801  .00015683  00000+0  70359-3 0  9996
2 56934  97.5503   5.7804 0009213 119.2718 240.9440 15.21251375 68005
EIVE                    
1 56937U 23084F   24247.63749253  .00064829  00000+0  20772-2 0  9993
2 56937  97.5438   8.0033 0005140 116.1933 243.9838 15.32114906 68166
LAYAN-23                
1 56939U 23084H   24247.62369417  .00073820  00000+0  22434-2 0  9992
2 56939  97.5439   8.6456 0005216 104.1288 256.0534 15.33762119 68207
AFRL-XVI                
1 56942U 23084L   24247.62085017  .00030382  00000+0  96087-3 0  9999
2 56942  97.5478   8.7169 0006828 108.7881 251.4101 15.32713376 68192
BLACKJACK ACES-3        
1 56950U 23084U   24247.30185390  .00024957  00000+0  10130-2 0  9993
2 56950  97.5507   6.8402 0010137  98.1228 262.1159 15.24541971 68045
QPS-SAR-6 (AMATERU-III) 
1 56951U 23084V   24247.65197131  .00162852  00000+0  30918-2 0  9991
2 56951  97.5410  11.4149 0001384  57.3634 302.7749 15.47683112 68383
BLACKJACK ACES-4        
1 56952U 23084W   24247.58117813  .00038311  00000+0  14436-2 0  9992
2 56952  97.5491   7.3307 0010087  97.6278 262.6107 15.26931225 68104
BLACKJACK ACES-2        
1 56955U 23084Z   24247.61300476  .00034546  00000+0  14657-2 0  9999
2 56955  97.5498   7.1453 0010268 101.1794 259.0597 15.22973955 68092
BLACKJACK ACES-1        
1 56956U 23084AA  24247.58971188  .00033449  00000+0  14125-2 0  9991
2 56956  97.5469   7.1321 0010942 100.7495 259.4974 15.23134696 17816
ION SCV-011             
1 56957U 23084AB  24247.63090913  .00015172  00000+0  76816-3 0  9995
2 56957  98.0756  10.9984 0009971 127.0696 233.1449 15.17069328 66580
GHOST-3                 
1 56958U 23084AC  24247.57197996  .00022903  00000+0  98875-3 0  9997
2 56958  97.5504   6.3325 0011650 101.2720 258.9825 15.22458032 68038
TOMORROW-R2             
1 56962U 23084AG  24247.28239454  .00028928  00000+0  11444-2 0  9995
2 56962  97.5489   6.8054 0011424  98.2316 262.0218 15.25358946 68043
AFR-1                   
1 56964U 23084AJ  24247.61215414  .00012940  00000+0  62652-3 0  9999
2 56964  97.5532   5.4540 0014121 102.4768 257.8047 15.18609230 67975
DROID.001               
1 56965U 23084AK  24247.31737718  .00032006  00000+0  12339-2 0  9994
2 56965  97.5470   6.9678 0010790  93.8929 266.3543 15.26204956 68067
MUSAT1                  
1 56967U 23084AM  24247.28657637  .00110380  00000+0  22874-2 0  9990
2 56967  97.5386  11.1538 0004278  70.7277 289.4434 15.45324488 68342
AII-DELTA               
1 56987U 23084BH  24247.61728707  .00102789  00000+0  25612-2 0  9993
2 56987  97.5392  10.3979 0007263  66.1690 294.0316 15.39811459 68338
SPEI SATELLES           
1 56991U 23084BT  24247.30349161  .00058854  00000+0  17642-2 0  9994
2 56991  97.5417   8.8046 0006802  77.8267 282.3737 15.34259726 68194
URESAT-1                
1 56992U 23084BU  24247.60777336  .00085812  00000+0  24513-2 0  9996
2 56992  97.5369   8.1972 0009334 112.2074 248.0161 15.35634951 68182
MRC-100                 
1 56993U 23084BV  24247.57213947  .00106233  00000+0  26938-2 0  9990
2 56993  97.5362   8.8837 0007559 111.0636 249.1418 15.39258655 68231
METEOR-M2 3             
1 57166U 23091A   24247.67614378  .00000180  00000+0  97815-4 0  9993
2 57166  98.7061 301.6206 0002887 258.5309 101.5545 14.23920383 61792
STRATOSAT-TK 1 (RS52S)  
1 57167U 23091B   24247.67502515  .00036194  00000+0  18758-2 0  9994
2 57167  97.6040 300.6762 0014501 203.0736 156.9847 15.15992015 65436
UMKA 1 (RS40S)          
1 57172U 23091G   24247.68728521  .00014184  00000+0  89800-3 0  9990
2 57172  97.6049 298.9772 0015934 208.8207 151.2143 15.08980702 65325
2023-091H               
1 57173U 23091H   24247.69608699  .00019275  00000+0  11783-2 0  9995
2 57173  97.6044 299.1177 0014035 217.6019 142.4230 15.10218000 65331
2023-091J               
1 57174U 23091J   24247.72107315  .00009731  00000+0  65912-3 0  9999
2 57174  97.6059 298.1948 0014531 219.7908 140.2254 15.06604831 65275
CUBEBEL 2 (EU11S)       
1 57175U 23091K   24247.65822173  .00017716  00000+0  10862-2 0  9993
2 57175  97.6046 299.0042 0014028 219.6131 140.4074 15.10127391 65329
SITRO-AIS 5 (KATYS)     
1 57176U 23091L   24247.71934282  .00017862  00000+0  10855-2 0  9990
2 57176  97.6050 299.2922 0016753 208.3402 151.6917 15.10413914 65348
ZORKIY-2M 1             
1 57177U 23091M   24247.67265453  .00012807  00000+0  80755-3 0  9994
2 57177  97.6066 299.0925 0016734 204.5533 155.4900 15.09144368 65323
CUBESX-HSE 3 (RS42S)    
1 57178U 23091N   24247.62563020  .00020390  00000+0  12208-2 0  9994
2 57178  97.6082 299.5711 0016509 202.6116 157.4388 15.10928350 65343
MONITOR-3 (RS58S)       
1 57180U 23091Q   24247.70673541  .00018074  00000+0  11018-2 0  9990
2 57180  97.6070 299.4283 0016837 203.2756 156.7712 15.10296093 65342
MONITOR-4 (RS57S)       
1 57182U 23091S   24247.64099764  .00018346  00000+0  11181-2 0  9997
2 57182  97.6064 299.3312 0016885 204.1298 155.9142 15.10301087 65330
MONITOR-2 (RS39S)       
1 57184U 23091U   24247.58355459  .00011407  00000+0  72563-3 0  9991
2 57184  97.6071 299.2845 0013681 197.3456 162.7306 15.08890098 65329
SVYATOBOR 1 (RS60S)     
1 57187U 23091X   24247.71467782  .00017244  00000+0  10350-2 0  9992
2 57187  97.6072 300.0390 0013255 193.2631 166.8252 15.10916039 65384
HORS 1                  
1 57188U 23091Y   24247.71103147  .00017107  00000+0  10274-2 0  9998
2 57188  97.6051 299.9409 0012629 193.5207 166.5686 15.10903235 65387
VIZARD-METEO (RS38S)    
1 57189U 23091Z   24247.72117932  .00021544  00000+0  12282-2 0  9998
2 57189  97.6066 300.6023 0012265 189.3268 170.7737 15.12738454 65422
NANOZOND 1 (RS49S)      
1 57190U 23091AA  24247.70264502  .00032658  00000+0  16824-2 0  9998
2 57190  97.6040 301.4022 0010661 192.2434 167.8541 15.16270540 65487
SITRO-AIS 6 (CHIRKIN)   
1 57192U 23091AC  24247.63535617  .00019228  00000+0  11666-2 0  9997
2 57192  97.6047 299.2377 0016637 208.7383 151.2931 15.10458325 65335
SITRO-AIS 8 (ANOKHIN)   
1 57193U 23091AD  24247.71611152  .00019295  00000+0  11559-2 0  9991
2 57193  97.6045 299.4284 0016321 208.9162 151.1164 15.10922133 65352
SITRO-AIS 7 (FARTUSHNIY)
1 57194U 23091AE  24247.70928043  .00018252  00000+0  11096-2 0  9999
2 57194  97.6045 299.2857 0016485 209.0824 150.9488 15.10398658 65349
AVION KALUGA 650        
1 57195U 23091AF  24247.69626576  .00013379  00000+0  84254-3 0  9996
2 57195  97.6088 299.6679 0012942 197.8658 162.2117 15.09227087 65357
HORS 2                  
1 57196U 23091AG  24247.69297320  .00019553  00000+0  11378-2 0  9994
2 57196  97.6070 300.3429 0012425 193.8625 166.2266 15.12018790 65406
A-SEANSAT-PG1           
1 57197U 23091AH  24247.69399781  .00022872  00000+0  13062-2 0  9999
2 57197  97.6052 300.3910 0012208 195.9401 164.1447 15.12663200 65417
YARILO 3                
1 57198U 23091AJ  24247.63695865  .00061421  00000+0  26490-2 0  9998
2 57198  97.6084 302.8833 0010815 190.0510 170.0511 15.22259160 65553
SITRO-AIS 10 (BURDAEV)  
1 57199U 23091AK  24247.72117075  .00022086  00000+0  12528-2 0  9992
2 57199  97.6060 300.5769 0012023 194.3943 165.6947 15.12916944 65429
SITRO-AIS 9 (SHCHUKIN)  
1 57201U 23091AM  24247.65444930  .00021601  00000+0  12265-2 0  9991
2 57201  97.6056 300.4835 0011970 194.5932 165.4954 15.12886050 65410
